EXPRESS-AM7             
1 40505U 15012A   24319.15681962  .00000160  00000+0  00000+0 0  9995
2 40505   0.0136 284.4348 0003129 321.9050 263.9125  1.00272649 35191
IRNSS-1D                
1 40547U 15018A   24317.24146661 -.00000301  00000+0  00000+0 0  9995
2 40547  27.1953 250.1356 0018463 185.0859 175.3552  1.00280228 35154
BEIDOU-3S IGSO-1S       
1 40549U 15019A   24316.93104670 -.00000181  00000+0  00000+0 0  9993
2 40549  50.3003 302.4405 0035767 198.9916 342.1959  1.00271387 35239
THOR 7                  
1 40613U 15022A   24319.14873973  .00000001  00000+0  00000+0 0  9994
2 40613   0.0263 129.6020 0002646  97.2046 239.8453  1.00270258 35000
TURKMENALEM52E/MONACOSAT
1 40617U 15023A   24319.01607329  .00000113  00000+0  00000+0 0  9999
2 40617   0.0163 308.0351 0003456 300.1885 223.2017  1.00273506 35035
DIRECTV 15              
1 40663U 15026A   24319.43382791 -.00000093  00000+0  00000+0 0  9990
2 40663   0.0250  67.1120 0000751 170.5699 229.6426  1.00273242 34666
SKY MEXICO-1            
1 40664U 15026B   24318.34690644 -.00000224  00000+0  00000+0 0  9995
2 40664   0.0239 338.2508 0002351 263.1275 217.7123  1.00269657 34637
METEOSAT-11 (MSG-4)     
1 40732U 15034A   24319.15073799  .00000072  00000+0  00000+0 0  9996
2 40732   1.7504  71.3152 0001283 180.4006 225.5262  1.00274015  1406
STAR ONE C4             
1 40733U 15034B   24318.34864406 -.00000255  00000+0  00000+0 0  9994
2 40733   0.0260 336.8527 0002450 330.3143 161.3112  1.00266071 34206
WGS F7 (USA 263)        
1 40746U 15036A   24319.33868806  .00000028  00000+0  00000+0 0  9995
2 40746   0.0140 286.3789 0000037 322.9617 101.5553  1.00271332 34052
INTELSAT 34 (IS-34)     
1 40874U 15039A   24318.20857352 -.00000275  00000+0  00000+0 0  9994
2 40874   0.0199 286.7212 0000360 196.3393 309.3825  1.00270347 33791
EUTELSAT 8 WEST B       
1 40875U 15039B   24319.15604806 -.00000055  00000+0  00000+0 0  9990
2 40875   0.0681 350.8662 0003936 246.5917 224.5292  1.00271706 33833
GSAT-6                  
1 40880U 15041A   24319.58105073 -.00000151  00000+0  00000+0 0  9995
2 40880   0.4145  91.0265 0003428 145.7089 109.1386  1.00270242 33787
INMARSAT 5-F3           
1 40882U 15042A   24319.33868806  .00000060  00000+0  00000+0 0  9999
2 40882   0.0172  30.0950 0000388 137.2295 188.1252  1.00271167 33748
MUOS-4                  
1 40887U 15044A   24319.54042525 -.00000084  00000+0  00000+0 0  9998
2 40887   3.3227  35.3237 0051332 356.4541 291.9435  1.00270883 33740
TJS-1                   
1 40892U 15046A   24319.56924521 -.00000147  00000+0  00000+0 0  9993
2 40892   0.0862 276.4212 0005693  16.2715 121.3948  1.00271267 33741
EXPRESS-AM8             
1 40895U 15048A   24319.19632637 -.00000101  00000+0  00000+0 0  9991
2 40895   0.0146 283.6010 0000424 203.2754 343.6183  1.00270952 33530
BEIDOU-3S IGSO-2S       
1 40938U 15053A   24319.31129081 -.00000176  00000+0  00000+0 0  9995
2 40938  50.1275 265.6486 0052230 189.3761 167.6151  1.00271297 33530
SKY MUSTER 1 (NBN1A)    
1 40940U 15054A   24318.32065355 -.00000269  00000+0  00000+0 0  9995
2 40940   0.0155 284.5158 0001923 304.0739  80.0373  1.00269616 33439
ARSAT 2                 
1 40941U 15054B   24318.34647204 -.00000215  00000+0  00000+0 0  9998
2 40941   0.0667  81.5803 0001925 148.1355 226.9992  1.00271071 33495
MORELOS 3               
1 40946U 15056A   24319.41241733 -.00000040  00000+0  00000+0 0  9997
2 40946   2.9814 357.0140 0001874 177.8776 274.4959  1.00271684 33478
APSTAR-9                
1 40982U 15059A   24319.58730028 -.00000257  00000+0  00000+0 0  9998
2 40982   0.0459  81.9770 0002876 146.6921 178.9398  1.00268712 33308
TURKSAT 4B              
1 40984U 15060A   24319.54632977  .00000125  00000+0  00000+0 0  9995
2 40984   0.0659  89.6284 0001007  81.4515 129.6821  1.00270440 33289
ZHONGXING-2C            
1 41021U 15063A   24319.56368807 -.00000314  00000+0  00000+0 0  9992
2 41021   0.0178  80.7194 0005065 120.6643 159.0997  1.00269516 33188
GSAT-15                 
1 41028U 15065A   24319.58105073 -.00000249  00000+0  00000+0 0  9994
2 41028   0.0356 269.8541 0003231 304.2813 142.7317  1.00272289 32984
BADR-7 (ARABSAT-6B)     
1 41029U 15065B   24318.58217885  .00000154  00000+0  00000+0 0  9993
2 41029   0.0309 237.1804 0007074   2.7849  48.8139  1.00271784 32944
LAOSAT 1                
1 41034U 15067A   24319.59285743 -.00000334  00000+0  00000+0 0  9992
2 41034   0.0186  67.0421 0001522 121.8537 207.2279  1.00268950 33046
TELSTAR 12V             
1 41036U 15068A   24319.34771615 -.00000109  00000+0  00000+0 0  9996
2 41036   0.0145 279.0674 0002531 317.8093 287.2540  1.00269136 32813
ELEKTRO-L 2             
1 41105U 15074A   24319.44285551 -.00000106  00000+0  00000+0 0  9997
2 41105   5.2235  77.6272 0003879 181.6805 299.6662  1.00271993 32699
COSMOS 2513             
1 41121U 15075A   24319.11577260 -.00000128  00000+0  00000+0 0  9995
2 41121   0.0652  99.0356 0003693 168.2581 268.3736  1.00265230 32726
EXPRESS-AMU1            
1 41191U 15082A   24319.44186981  .00000165  00000+0  00000+0 0  9992
2 41191   0.0165 308.6001 0003170 299.7972   0.7794  1.00271485 32453
GAOFEN-4                
1 41194U 15083A   24318.59799109 -.00000325  00000+0  00000+0 0  9992
2 41194   0.0734  74.1935 0002789 211.3001  88.6619  1.00267110 32706
BELINTERSAT-1           
1 41238U 16001A   24319.54632977  .00000116  00000+0  00000+0 0  9994
2 41238   0.0084  67.0679 0001985 167.3745  67.8807  1.00272086 32426
IRNSS-1E                
1 41241U 16003A   24318.73695366 -.00000288  00000+0  00000+0 0  9992
2 41241  31.9736  71.2524 0022113 182.5766 176.6060  1.00270558 32254
EUTELSAT 9B             
1 41310U 16005A   24318.81785653  .00000072  00000+0  00000+0 0  9999
2 41310   0.0545  78.4868 0004534 171.2981 107.0798  1.00270995 32292
SES-9                   
1 41380U 16013A   24318.62500000 -.00000336  00000+0  00000+0 0  9999
2 41380   0.0170 299.8704 0000871 217.1410 229.5393  1.00270413 31619
EUTELSAT 65 WEST A      
1 41382U 16014A   24319.17271828 -.00000266  00000+0  00000+0 0  9998
2 41382   0.0852  56.1159 0002418 183.5367 171.1305  1.00270969 31714
IRNSS-1F                
1 41384U 16015A   24317.95257907  .00000172  00000+0  00000+0 0  9992
2 41384   3.9142 112.6142 0024487 178.0092 137.4964  1.00275792 31832
BEIDOU-2 IGSO-6         
1 41434U 16021A   24318.69389956 -.00000188  00000+0  00000+0 0  9995
2 41434  59.4015  43.8496 0054699 224.4172 131.0036  1.00285172 31656
IRNSS-1G                
1 41469U 16027A   24318.38826155 -.00000322  00000+0  00000+0 0  9992
2 41469   3.7831 113.6465 0001841   3.5980 205.0196  1.00265337 31355
JCSAT-2B                
1 41471U 16028A   24318.17868664 -.00000156  00000+0  00000+0 0  9999
2 41471   0.0162 286.5153 0001007 322.5467  22.0403  1.00270873 31299
THAICOM 8               
1 41552U 16031A   24319.54007581 -.00000112  00000+0  00000+0 0  9990
2 41552   0.0697  52.8058 0003248 211.9423  62.3592  1.00269630 30904
INTELSAT 31 (IS-31)     
1 41581U 16035A   24315.91313947 -.00000142  00000+0  00000+0 0  9992
2 41581   0.0108 220.5785 0001583 306.5637 117.1031  1.00272069 30831
BEIDOU-2 G7             
1 41586U 16037A   24319.56368807 -.00000344  00000+0  00000+0 0  9993
2 41586   1.7386  66.9484 0006800 343.3284 317.3890  1.00270017  1076
ABS-2A (MONGOLSAT-1)    
1 41588U 16038A   24319.00396535 -.00000074  00000+0  00000+0 0  9994
2 41588   0.0099 254.1079 0001704 297.2414 298.4148  1.00268637 30894
EUTELSAT 117 WEST B     
1 41589U 16038B   24317.62448315 -.00000002  00000+0  00000+0 0  9996
2 41589   0.0157 131.6985 0000164 314.2315  74.1381  1.00271861 30840
BRISAT                  
1 41591U 16039A   24318.24949424 -.00000188  00000+0  00000+0 0  9991
2 41591   0.0238 280.2046 0002149 305.6023  67.3487  1.00268617 30786
ECHOSTAR 18             
1 41592U 16039B   24317.49252741 -.00000273  00000+0  00000+0 0  9992
2 41592   0.0171 277.2319 0001805 316.8557 293.9707  1.00270031 30781
MUOS-5                  
1 41622U 16041A   24318.45628365 -.00000121  00000+0  00000+0 0  9997
2 41622   3.5297 296.8182 0199567 257.0196 278.5005  1.00270536 31269
TIANTONG-1 1            
1 41725U 16048A   24319.38348612 -.00000310  00000+0  00000+0 0  9995
2 41725   2.8411  33.9488 0005076 271.0492 348.4634  1.00271658 30459
JCSAT-16                
1 41729U 16050A   24318.33339366 -.00000242  00000+0  00000+0 0  9996
2 41729   0.0136 291.6914 0000707 154.7345 230.4764  1.00270029 30246
INTELSAT 36 (IS-36)     
1 41747U 16053A   24318.95327051 -.00000015  00000+0  00000+0 0  9993
2 41747   0.0163 353.4753 0001787 356.4850 115.3013  1.00271542 30132
INSAT-3DR               
1 41752U 16054A   24319.09209368 -.00000068  00000+0  00000+0 0  9994
2 41752   0.1156  92.0046 0013985 174.3072 254.5350  1.00271532 30003
GSAT-18                 
1 41793U 16060A   24319.59910654 -.00000068  00000+0  00000+0 0  9998
2 41793   0.0635  96.8319 0003034 138.8517 108.2156  1.00270910 29711
SKY MUSTER 2 (NBN1B)    
1 41794U 16060B   24318.59719668 -.00000234  00000+0  00000+0 0  9995
2 41794   0.0155 287.2094 0001690 301.4174 184.4137  1.00271957 29692
HIMAWARI-9              
1 41836U 16064A   24319.58730028 -.00000265  00000+0  00000+0 0  9993
2 41836   0.0532 129.3754 0001016 107.3909 169.6226  1.00271188 29395
SHIJIAN-17 (SJ-17)      
1 41838U 16065A   24319.62998263  .00000105  00000+0  00000+0 0  9990
2 41838   4.2709  79.5941 0003875 206.0720 177.0060  1.00544082 29403
GOES 16                 
1 41866U 16071A   24319.17271828 -.00000238  00000+0  00000+0 0  9997
2 41866   0.0176 272.2660 0001104  14.5583 113.9538  1.00271880 29286
TIANLIAN 1-04           
1 41869U 16072A   24319.57896490  .00000040  00000+0  00000+0 0  9993
2 41869   0.2043  92.8488 0035152  74.1567 272.4095  1.00269151 29492
